      2.10          N: GNSS NAV DATA                        RINEX VERSION / TYPE
fic2rin                                 12/16/2024 00:59:02 PGM / RUN BY / DATE
                                                            END OF HEADER
12 24 12 15  8  0  0.0 -.558460131288D-03 -.238742359215D-11  .000000000000D+00
     .420000000000D+02  .422187500000D+02  .413588656199D-08  .301109554499D+01
     .223331153393D-05  .893413217273D-02  .106506049633D-04  .515378074074D+04
     .288000000000D+05  .122934579849D-06  .264798408531D+01 -.577419996262D-07
     .961358735559D+00  .172062500000D+03  .146183066300D+01 -.744995317760D-08
    -.658241704123D-09  .100000000000D+01  .234500000000D+04  .000000000000D+00
     .240000000000D+01  .000000000000D+00 -.125728547573D-07  .420000000000D+02
     .216000000000D+05  .400000000000D+01
10 24 12 15  8  0  0.0 -.235158950090D-03 -.153477230924D-10  .000000000000D+00
     .340000000000D+02 -.183468750000D+03  .367729603128D-08  .217568124967D+01
    -.951439142227D-05  .100671418477D-01  .686384737492D-05  .515369636154D+04
     .288000000000D+05 -.167638063431D-06 -.558632983043D+00 -.150874257088D-06
     .987281465447D+00  .266062500000D+03 -.234379624045D+01 -.764103256539D-08
    -.122147945095D-09  .100000000000D+01  .234500000000D+04  .000000000000D+00
     .340000000000D+01  .000000000000D+00  .232830643654D-08  .340000000000D+02
     .216000000000D+05  .400000000000D+01
7  24 12 15  8  0  0.0 -.155637972057D-04  .125055521494D-11  .000000000000D+00
     .390000000000D+02 -.875000000000D+00  .510128391752D-08 -.254287598728D+01
    -.145286321640D-06  .188503693789D-01  .475533306599D-05  .515375434303D+04
     .288000000000D+05  .257045030594D-06  .153165987420D+01 -.104308128357D-06
     .949806675672D+00  .279593750000D+03 -.208875843320D+01 -.788854287519D-08
     .764317551180D-10  .100000000000D+01  .234500000000D+04  .000000000000D+00
     .240000000000D+01  .000000000000D+00 -.107102096081D-07  .390000000000D+02
     .216000000000D+05  .400000000000D+01
5  24 12 15  8  0  0.0 -.196058768779D-03 -.113686837722D-11  .000000000000D+00
     .153000000000D+03 -.171968750000D+03  .413802950840D-08  .547587376618D+00
    -.878050923347D-05  .563133007381D-02  .699423253536D-05  .515372437286D+04
     .288000000000D+05 -.353902578354D-07 -.610056671835D+00  .409781932831D-07
     .974489265035D+00  .253093750000D+03  .133071704708D+01 -.800497629654D-08
    -.192508018732D-09  .100000000000D+01  .234500000000D+04  .000000000000D+00
     .240000000000D+01  .000000000000D+00 -.107102096081D-07  .153000000000D+03
     .216000000000D+05  .400000000000D+01
6  24 12 15  8  0  0.0 -.454424880445D-04 -.286490831058D-10  .000000000000D+00
     .800000000000D+02 -.931250000000D+01  .422803325741D-08 -.170061128547D+01
    -.419095158577D-06  .338963221293D-02 -.664964318275D-06  .515374628067D+04
     .288000000000D+05 -.596046447754D-07 -.159213814523D+01 -.353902578354D-07
     .989065303866D+00  .411093750000D+03 -.752775527642D+00 -.820998483597D-08
     .732173355102D-10  .100000000000D+01  .234500000000D+04  .000000000000D+00
     .240000000000D+01  .000000000000D+00  .372529029846D-08  .800000000000D+02
     .216000000000D+05  .400000000000D+01
26 24 12 15  8  0  0.0 -.951858237386D-05 -.140971678775D-10  .000000000000D+00
     .470000000000D+02  .119062500000D+02  .510021244432D-08  .204625613819D+01
     .560656189919D-06  .971949868836D-02  .100769102573D-04  .515374382210D+04
     .288000000000D+05 -.210478901863D-06  .249296509476D+01 -.707805156708D-07
     .930051940488D+00  .171437500000D+03  .595147353933D+00 -.809212278368D-08
    -.777889545079D-09  .100000000000D+01  .234500000000D+04  .000000000000D+00
     .240000000000D+01  .000000000000D+00  .651925802231D-08  .470000000000D+02
     .216000000000D+05  .400000000000D+01
27 24 12 15  8  0  0.0 -.341641716659D-04  .341060513165D-12  .000000000000D+00
     .570000000000D+02  .162968750000D+03  .428196407528D-08  .295313685778D+00
     .856444239616D-05  .130005527753D-01  .746361911297D-05  .515369340515D+04
     .288000000000D+05 -.651925802231D-07 -.266725399628D+01  .232830643654D-06
     .959472131534D+00  .236625000000D+03  .803622863284D+00 -.812283834882D-08
     .116433421348D-09  .100000000000D+01  .234500000000D+04  .000000000000D+00
     .240000000000D+01  .000000000000D+00  .186264514923D-08  .570000000000D+02
     .216000000000D+05  .400000000000D+01
31 24 12 15  8  0  0.0 -.219936948270D-03  .795807864051D-12  .000000000000D+00
     .560000000000D+02 -.146875000000D+01  .508092592667D-08  .267517611169D+01
    -.314787030220D-06  .107146158116D-01  .490993261337D-05  .515358802032D+04
     .288000000000D+05 -.186264514923D-08  .155403252470D+01 -.150874257088D-06
     .953722551881D+00  .281500000000D+03  .784253571903D+00 -.796961768085D-08
    -.842892252703D-10  .100000000000D+01  .234500000000D+04  .000000000000D+00
     .240000000000D+01  .000000000000D+00 -.135041773319D-07  .560000000000D+02
     .216000000000D+05  .400000000000D+01
32 24 12 15  8  0  0.0 -.558743253350D-03  .613908923697D-11  .000000000000D+00
     .740000000000D+02 -.365000000000D+02  .439804033889D-08  .898727932723D+00
    -.178627669811D-05  .814561103471D-02  .106841325760D-04  .515376479530D+04
     .288000000000D+05 -.502914190292D-07  .474233868487D+00  .143423676491D-06
     .963691545690D+00  .178593750000D+03 -.212175745290D+01 -.784389815841D-08
     .538593863168D-09  .100000000000D+01  .234500000000D+04  .000000000000D+00
     .240000000000D+01  .000000000000D+00  .931322574615D-09  .740000000000D+02
     .216000000000D+05  .400000000000D+01
24 24 12 15  8  0  0.0 -.473313964903D-03  .306954461848D-11  .000000000000D+00
     .420000000000D+02  .471875000000D+01  .548701427045D-08 -.166860531650D+01
     .366941094398D-06  .163815114647D-01  .458210706711D-05  .515367740059D+04
     .288000000000D+05  .381842255592D-06  .143102298925D+01 -.558793544769D-08
     .933588050478D+00  .274000000000D+03  .103874885892D+01 -.817534053575D-08
     .796461747257D-10  .100000000000D+01  .234500000000D+04  .000000000000D+00
     .240000000000D+01  .000000000000D+00  .232830643654D-08  .420000000000D+02
     .216000000000D+05  .400000000000D+01
30 24 12 15  8  0  0.0 -.260941684246D-03  .807176547823D-11  .000000000000D+00
     .470000000000D+02  .781250000000D+00  .552844456762D-08 -.271858180396D+01
    -.633299350739D-07  .720122444909D-02  .478327274323D-05  .515375088501D+04
     .288000000000D+05  .298023223877D-07  .152925193592D+01 -.134110450745D-06
     .934974851467D+00  .272875000000D+03 -.245749598907D+01 -.828820237975D-08
    -.307155651409D-10  .100000000000D+01  .234500000000D+04  .000000000000D+00
     .240000000000D+01  .000000000000D+00  .372529029846D-08  .470000000000D+02
     .216000000000D+05  .400000000000D+01
29 24 12 15  8  0  0.0 -.555791426450D-03  .318323145621D-11  .000000000000D+00
     .104000000000D+03  .177125000000D+03  .405266880992D-08  .139117542095D+00
     .917911529541D-05  .288576609455D-02  .629015266895D-05  .515374136162D+04
     .288000000000D+05  .353902578354D-07 -.258208519664D+01 -.335276126862D-07
     .968660863356D+00  .260406250000D+03  .265617896472D+01 -.798211820155D-08
     .259653672761D-09  .100000000000D+01  .234500000000D+04  .000000000000D+00
     .240000000000D+01  .000000000000D+00 -.977888703346D-08  .104000000000D+03
     .216000000000D+05  .400000000000D+01
16 24 12 15  8  0  0.0 -.102856662124D-03  .954969436862D-11  .000000000000D+00
     .102000000000D+03  .330625000000D+02  .425374861428D-08  .121918734432D+01
     .187754631042D-05  .143830671441D-01  .114087015390D-04  .515366758919D+04
     .288000000000D+05 -.232830643654D-06  .266559198090D+01  .745058059692D-08
     .960742667108D+00  .164281250000D+03  .861039518872D+00 -.782996900678D-08
    -.835034782550D-09  .100000000000D+01  .234500000000D+04  .000000000000D+00
     .340000000000D+01  .000000000000D+00 -.107102096081D-07  .102000000000D+03
     .216000000000D+05  .400000000000D+01
21 24 12 15  8  0  0.0  .961376354098D-04  .261479726760D-11  .000000000000D+00
     .620000000000D+02  .266875000000D+02  .503842415630D-08  .409860433246D-01
     .113062560558D-05  .257432847284D-01 -.616535544395D-06  .515362149620D+04
     .288000000000D+05  .266358256340D-06 -.170343318422D+01 -.253319740295D-06
     .960576293824D+00  .390250000000D+03 -.479174471997D+00 -.897894543769D-08
     .122862260563D-09  .100000000000D+01  .234500000000D+04  .000000000000D+00
     .240000000000D+01  .000000000000D+00 -.102445483208D-07  .620000000000D+02
     .216000000000D+05  .400000000000D+01
20 24 12 15  8  0  0.0  .367881730199D-03 -.341060513165D-12  .000000000000D+00
     .930000000000D+02 -.158093750000D+03  .463376444346D-08 -.141770969010D+01
    -.810623168945D-05  .385091698263D-02  .485405325890D-05  .515366101646D+04
     .288000000000D+05  .353902578354D-07 -.742375051998D+00  .298023223877D-07
     .956671142267D+00  .281687500000D+03 -.240387154777D+01 -.815105380982D-08
    -.135719938995D-09  .100000000000D+01  .234500000000D+04  .000000000000D+00
     .240000000000D+01  .000000000000D+00 -.838190317154D-08  .930000000000D+02
     .216000000000D+05  .400000000000D+01
15 24 12 15  8  0  0.0  .239783432335D-03  .454747350886D-11  .000000000000D+00
     .570000000000D+02 -.461875000000D+02  .497163566001D-08 -.792078333036D+00
    -.229291617870D-05  .161415346665D-01  .112913548946D-04  .515373805809D+04
     .288000000000D+05 -.244006514549D-06  .325823990711D+00  .201165676117D-06
     .937686062914D+00  .150843750000D+03  .138308369044D+01 -.826462996930D-08
     .576809740727D-09  .100000000000D+01  .234500000000D+04  .000000000000D+00
     .240000000000D+01  .000000000000D+00 -.102445483208D-07  .570000000000D+02
     .216000000000D+05  .400000000000D+01
